[{"OBJECT_NAME":"ONEWEB-0264","OBJECT_ID":"2021-060R","EPOCH":"2026-03-09T22:22:27.938784","MEAN_MOTION":13.16592235,"ECCENTRICITY":0.00015341,"INCLINATION":87.9003,"RA_OF_ASC_NODE":248.5268,"ARG_OF_PERICENTER":102.9843,"MEAN_ANOMALY":257.146,"EPHEMERIS_TYPE":0,"CLASSIFICATION_TYPE":"U","NORAD_CAT_ID":48982,"ELEMENT_SET_NO":999,"REV_AT_EPOCH":22653,"BSTAR":0.00012518342,"MEAN_MOTION_DOT":6.1e-7,"MEAN_MOTION_DDOT":0},{"OBJECT_NAME":"DELTA 1 DEB","OBJECT_ID":"1975-052HD","EPOCH":"2026-03-09T11:59:31.042176","MEAN_MOTION":13.09408553,"ECCENTRICITY":0.02021019,"INCLINATION":99.7787,"RA_OF_ASC_NODE":63.8618,"ARG_OF_PERICENTER":116.6875,"MEAN_ANOMALY":34.6931,"EPHEMERIS_TYPE":0,"CLASSIFICATION_TYPE":"U","NORAD_CAT_ID":21549,"ELEMENT_SET_NO":999,"REV_AT_EPOCH":66017,"BSTAR":0.0007436972,"MEAN_MOTION_DOT":2.45e-6,"MEAN_MOTION_DDOT":0}]
